[{"OBJECT_NAME":"STARLINK-31129","OBJECT_ID":"2023-203G","EPOCH":"2026-03-09T23:11:58.720704","MEAN_MOTION":15.27630951,"ECCENTRICITY":1.444e-5,"INCLINATION":43.002,"RA_OF_ASC_NODE":65.5363,"ARG_OF_PERICENTER":278.4306,"MEAN_ANOMALY":81.6529,"EPHEMERIS_TYPE":0,"CLASSIFICATION_TYPE":"U","NORAD_CAT_ID":58624,"ELEMENT_SET_NO":999,"REV_AT_EPOCH":12360,"BSTAR":0.00087632816,"MEAN_MOTION_DOT":0.00023968,"MEAN_MOTION_DDOT":0},{"OBJECT_NAME":"CZ-4B R\/B","OBJECT_ID":"2024-208C","EPOCH":"2026-03-09T16:49:23.143584","MEAN_MOTION":15.26980605,"ECCENTRICITY":0.01307988,"INCLINATION":97.9574,"RA_OF_ASC_NODE":113.1946,"ARG_OF_PERICENTER":150.913,"MEAN_ANOMALY":209.9477,"EPHEMERIS_TYPE":0,"CLASSIFICATION_TYPE":"U","NORAD_CAT_ID":61938,"ELEMENT_SET_NO":999,"REV_AT_EPOCH":7308,"BSTAR":0.00035146236,"MEAN_MOTION_DOT":0.000119,"MEAN_MOTION_DDOT":0}]
